store_number,code,common_store_name,address_line_1,address_line_2,town_city,county,postcode
001,M395,Chingford,6-7 Salisbury Hall Gardens,Chingford Road,Chingford,Essex,E4 8SA
002,M395,Mayo Avenue,110 Mayo Avenue,,Bradford,West Yorkshire,BD5 8HP
003,M395,E5,275 Bradford Road,Idle,Bradford,West Yorkshire,BD10 8EG
004,M395,Victoria,Victoria Shopping Centre,Young Street,Bradford,West Yorkshire,BD8 9TP
005,M395,Keighley,Worth Way,,Keighley,West Yorkshire,BD21 5AE
006,M395,Westgate,John Street Market,,Bradford,West Yorkshire,BD1 3SR
007,M395,Yeadon,High Street,Yeadon,Leeds,West Yorkshire,LS19 7PP
010,M395,Merrion,Merrion Centre,Woodhouse Lane,Leeds,West Yorkshire,LS2 8PJ
011,M395,Morley,Windsor Court,Morley,Leeds,West Yorkshire,LS27 9BG
015,M395,Hunslet,Church Street,Hunslet,Leeds,West Yorkshire,LS10 2AP
017,M395,Horsforth,69 Town Street,Horsforth,Leeds,West Yorkshire,LS18 5BP
019,M395,Widnes,Green Oaks Way,,Widnes,Cheshire,WA8 6UA
021,M395,St Helens,Baxters Lane,Sutton,St Helens,Merseyside ,WA9 3DH
022,M395,Failworth,Marlborough Mill,Poplar Street,Manchester,Greater Manchester,M35 0HY
023,M395,Mansfield,Sutton Road,,Mansfield,Nottinghamshire,NG18 5HL
024,M395,Bilston,Black Country Route,Bilston,Wolverhampton,West Midlands,WV14 0DZ
025,M395,Ince,Makerfield Way,,Ince,Lancashire,WN2 2PP
027,M395,Staveley,1 Barnfield Close,Staveley,Chesterfield,Derbyshire,S43 3UL
028,M395,Eccles,7 Irwell Place,Eccles,Manchester,Greater Manchester,M30 0FH
029,M395,Catcliffe,Poplar Way,Catcliffe,Rotherham,South Yorkshire,S60 5TR
030,M395,Grantham,Isaac Newton Centre,Wharfe Road,Grantham,Lincolnshire,NG31 6EE
031,M395,Gainsborough,Heapham Road South,,Gainsborough,Lincolnshire,DN21 1XY
032,M395,Heywood,Dawson Street,,Heywood,Lancashire,OL10 4PU
033,M395,Dewsbury Road,Dewsbury Road,,Wakefield,West Yorkshire,WF2 9BY
034,M395,Wakefield Riding,The Garden,The Ridings Centre,Wakefield,West Yorkshire,WF1 1YA
037,M395,Duckinfield,94 Foundry Street,,Dukinfield,Cheshire,SK16 5PJ
038,M395,Blackburn,Railway Road,,Blackburn,Lancashire,BB1 5AZ
040,M395,Bishop Auckland,Newgate Park Centre,Bob Hardisty Drive,Bishop Auckland,Co Durham,DL14 7TN
042,M395,Heckmondwike,17 Union Street,,Heckmondwike,West Yorkshire,WF16 0HL
043,M395,Wigan,10 Wigan Square,The Galleries,Wigan,Lancashire,WN1 1AW
044,M395,Carlise,Kingstown Road,,Carlisle,Cumbria,CA3 OQZ
045,M395,Bolton Dawes,Blackhorse Street,,Bolton,Lancashire,BL1 1PQ
048,M395,Newark,Kings Road,,Newark,Nottinghamshire,NG24 1EW
049,M395,Wellington,Spring Hill,Wellington,Telford,Shropshire ,TF1 1RP
051,M395,Pontefract,Stuart Road,,Pontefract,West Yorkshire,WF8 4PQ
053,M395,Rochdale,285 Kingsway,,Rochdale,Lancashire,OL16 4AT
059,M395,Bolton Atlas,Atlas Mills,Mornington Road,Bolton,Lancashire,BL1 4EU
060,M395,Chorley,Brooke Street,,Chorley,Lancashire,PR7 3BE
063,M395,Walsall,Wallows Lane,,Walsall,West Midlands,WS2 9BZ
066,M395,Blackpool,Squires Gate Lane,,Blackpool,Lancashire,FY4 2AY
067,M395,Netherfield,Victoria Parkway,Netherfield,Nottingham,Nottinghamshire,NG4 2PA
069,M395,Binley,Skipworth Road,Binley,Coventry,West Midlands,CV3 2XA
070,M395,Scunthorpe,Lakeside Parkway,,Scunthorpe,Lincolnshire,DN16 3UA
073,M395,Tamworth,Hilmore Way,Marlborough Way,Tamworth,Staffordshire,B77 2NY
074,M395,Morecambe,Central Drive,,Morecambe,Lancashire,LA4 4DW
075,M395,Cleethorpes,Hilmore Road,Laceby,Grimsby,Lincolnshire,DN37 7SQ
080,M395,Redcar,Lord Street,,Redcar,Cleveland,TS10 3ER
081,M395,Ipswich,Sproughton Road,,Ipswich,Suffolk,IP1 5AS
082,M395,Barry,Heol Ceiniog,,Barry,South Wales,CF63 4BA
083,M395,Pinchbeck,Wardentree Lane,Pinchbeck,Spalding,Lincolnshire,PE11 3UG
084,M395,Bristol,Lysander Road,Cribbs Causeway,Bristol,Avon,BS10 7UD
085,M395,Grays,1 London Road,,Grays,Essex,RM17 5XZ
086,M395,Dereham,Station Road,,East Dereham,Norfolk,NR19 1DF
087,M395,Rogerstone,Azalea Road,Rogerstone,Newport,South Wales,NP10 9SA
088,M395,Jarrow,20 Viking Precinct,,Jarrow,Tyne & Wear,NE32 3LQ
090,M395,Small Heath,280 Coventry Road,Small Heath,Birmingham,West Midlands,B10 0XA
091,M395,Byker,Shields Road,Byker,Newcastle Upon Tyne ,Tyne & Wear,NE6 1EJ
092,M395,Enfield,327 Southbury Road,,Enfield,Essex,EN1 1TW
093,M395,Denton,Saxon street,Denton,Manchester,Greater Manchester,M34 3DS
094,M395,Barrow,The Strand,,Barrow-In-Furness,Cumbria,LA14 2HF
095,M395,Ebbw Vale,Beaufort Road,,Ebbw Vale,South Wales,NP23 5WS
096,M395,Baglan,Christchurch Road,Baglan Industrial Park,Port Talbot,South Wales,SA12 7BZ
097,M395,Belle Vale,1 Besford Road,Belle Vale,Liverpool ,Merseyside,L25 2XT
098,M395,Barnsley,Lower Thomas Street,Off Westway,Barnsley,South Yorkshire,S70 1LQ
100,M395,Northampton,26 Victoria Promenade,,Northampton,Northamptonshire,NN1 1HB
102,M395,Doxford Park,William Doxford Centre,Doxford Park,Sunderland,Tyne & Wear,SR3 2NE
104,M395,Nelson,Pendle Street,,Nelson,Lancashire,BB9 7UZ
105,M395,Boundary Road,Boundary Road,,St Helens,Merseyside,WA10 2PX
106,M395,Banbury,Swan Close Road,,Banbury,Oxfordshire,OX16 5AQ
108,M395,Boroughbridge,Wetherby Road,,Boroughbridge,North Yorkshire,YO51 9HS
109,M395,Hull,716-718 Holderness Road,,Hull,Humberside,HU9 3JA
110,M395,Wetherby,7 The Horsefair Centre,,Wetherby,West Yorkshire,LS22 6FL
111,M395,Kettering,Lower Street,,Kettering,Northamptonshire,NN16 8AN
112,M395,Brampton,Corton Wood,Brampton,Barnsley,South Yorkshire,S73 OTB 
114,M395,Retford,Idle Valley Road,,Retford,Nottinghamshire,DN22 7XD
116,M395,Wellingborough,2-5 Oxford Street,,Wellingborough,Northamptonshire,NN8 4LL
117,M395,Kilmarnock,West Langlands Street,,Kilmarnock,Strathclyde,KA1 2PY
119,M395,Hyde,Mottram Road,,Hyde,Greater Manchester,SK14 2NG
120,M395,Crewe,Dunwoody Way,,Crewe,Cheshire,CW1 3AW
121,M395,Bulwell,Springfield Park,Leen Drive,Bulwell,Nottinghamshire,NG6 8EP
123,M395,Doncaster,York Road,,Doncaster,South Yorkshire,DN5 8XG
125,M395,Burton,Wellington Road,,Burton On Trent,Staffordshire,DE14 2AR
126,M395,Letchworth,Broadway,,Letchworth,Hertfordshire,SG6 3TS
127,M395,Newcastle U/Lyme,Lower Milehouse Lane,,Newcastle Under Lyme,Staffordshire,ST5 9AL
128,M395,Middlesborough,Berwick Hills Centre,Ormesby Road,Middlesborough,Cleveland,TS3 7PB
129,M395,Rhyl,Marsh Road,,Rhyl,Denbighshire,LL18 2DF
130,M395,Swansea,Brunel Way,Pentre-Chwyth,Swansea,South Wales,SA1 7DF
131,M395,Chester,Liverpool Road,,Chester,Cheshire,CH2 1BT
132,M395,Hartlepool,Clarence Road,,Hartlepool,Tyneside,TS24 8BZ
133,M395,Ripon,Harrogate Road,Quarrymoor,Ripon,North Yorkshire,HG4 2SB
134,M395,Southport,Winter Gardens,Lord Street,Southport,Merseyside,PR8 1RH
135,M395,Falkirk,Brockville Park,Hope Street,Falkirk,Stirlingshire,FK1 5BU
136,M395,Cardonald,1760 Paisley Road West,Cardonald,Glasgow,Lanarkshire,G52 3TP
137,M395,Swinnow Road,Swinnow Road,Bramley,Leeds,West Yorkshire,LS13 4DN
138,M395,Speke,1 Penketh Drive,Speke,Liverpool ,Merseyside,L24 2WZ
139,M395,Anchor Mills,Anchor Mill,16 Thread Street,Paisley,Renfrewshire,PA1 1GZ
142,M395,Abbeydale,Glevum Shopping Centre,Heron Way,Abbeydale,Gloucestershire,GL4 4FF
143,M395,Hartcliffe,Peterson Avenue,Hartcliffe,Bristol,Avon,BS13 0BE
144,M395,Knottingley,Marine Villa Road,,Knottingley,Yorkshire,WF11 8ER
145,M395,Dundee,1 Afton Way,,Dundee,Angus,DD4 8BR
146,M395,West Denton,Denton Park Shopping Centre,West Denton Way,Newcastle Upon Tyne,Tyne & Wear,NE5 1QZ
147,M395,Granton,3 Waterfront Broadway,,Edinburgh,Elgin,EH5 1SA
148,M395,Hamilton,5 New Park Street,,Hamilton,South Lanarkshire,ML3 OBN
149,M395,Whitefield,5 Stanley Road,,Whitefield,Greater Manchester,M45 8QH
152,M395,Auchinlea,20 Auchinlea Way,Easterhouse,Glasgow,Strathclyde,G34 9JJ
153,M395,Wednesbury,239 Holyhead Road,,Wednesbury,West Midlands,WS10 7BD
156,M395,Johnstone,30 Napier Street,Johnstone,Paisley,Renfrewshire,PA5 8SF
157,M395,Cardiff,International Drive,International Sports Village,Cardiff,Glamorgan,CF11 0JP
159,M395,Swadlincote,Coppice Side,,Swadlincote,Derbyshire,DE11 9AA
160,M395,Aberdeen,King Street,,Aberdeen,Aberdeenshire,AB24 5DA
161,M395,Airdrie,Gartlea Road,,Airdrie,Lanarkshire,ML6 9JL
162,M395,Alloa,Clackmannan Road,,Alloa,Clackmannanshire,FK10 1RQ
163,M395,Alness,Dalmore Road,,Alness,Invernesshire,IV17 0UY
164,M395,Arbroath,Hume Street,,Arbroath,Angus,DD11 1UH
165,M395,Ayr,Castlehill Road,,Ayr,Ayrshire,KA7 2HT
167,M395,Bellshill,John Street,,Bellshill,Strathclyde,ML4 1RJ
168,M395,Berwick,North Road,,Berwick Upon Tweed,Northumbria,TD15 1QQ
169,M395,Dumbarton,Glasgow Road,,Dumbarton,Strathclyde,G82 1QZ
170,M395,Dumfries,Brooms Road,,Dumfries,Dumfries & Galloway,DG1 2SH
171,M395,Lindsayfield,Greenhills,,Glasgow,Lanarkshire,G75 8YU
172,M395,Stewartfield,2 Macneish Way,Stewartfield,Glasgow,Lanarkshire,G74 4TT
173,M395,Ferry Road,102 Pilton Drive,,Edinburgh,Lothian,EH5 2HF
174,M395,Hunters Tryst,30 New Swanston,Hunters Tryst,Edinburgh,Lothian,EH10 7JA
175,M395,Moredun,Gilmerton Road,,Edinburgh,Lothian,EH17 7JH
177,M395,Gyle,Gyle Shopping Centre,Gyle Avenue,Edinburgh,Lothian,EH12 9JU
178,M395,Fort William,An Aird,,Fort William,Invernesshire,PH33 6AN
180,M395,Baillieston,Ravenswood Road,Baillieston,Glasgow,Lanarkshire,G 69 7HU
181,M395,Bishopbriggs,The Triangle Centre,Kirkintillock,Glasgow,Lanarkshire,G 64 2TR
182,M395,Cambuslang,1 Bridge Street,Cambuslang,Glasgow,Lanarkshire,G72 7EA
183,M395,Newlands,117 Riverford Road,Newlands,Glasgow,Lanarkshire,G43 1PU
184,M395,Glenrothes,Flemington Road,Glenrothes,Fife,Fife,KY7 5QF
185,M395,Greenock,Rue End Street,,Greenock,Inverclyde,PA15 1EL
187,M395,Hawick,Mart Street,,Hawick,Roxburghshire,TD9 9NQ
188,M395,Inverness,Millburn Road,,Inverness/3,Invernesshire,IV2 3PX
189,M395,Inverurie,Blackhall Road,Middlefield,Inverurie,Aberdeenshire,AB51 4JP
190,M395,Largs,4 Irvine Road,,Largs,Ayrshire,KA30 8JT
192,M395,Paisley,Falside Road,,Paisley,Renfrewshire,PA2 6JE
193,M395,Perth,Caledonian Road,,Perth,Perthshire,PH1 5XD
194,M395,Peterhead,Queen Street,,Peterhead,Aberdeenshire,AB42 1HH
195,M395,St Andrews,45 Largo Road,St Andrews,Fife,Fife,KY16 8PJ
196,M395,Stevenston,Kilwinning Road,,Stevenston,Strathclyde,KA20 3DE
197,M395,Stirling,Munro Road,Springkerse,Stirling,Stirlingshire,FK7 7UU
198,M395,Stranraer,London Road,,Stranraer,Dumfries & Galloway,DG9 8ES
199,M395,Troon,Dukes Road,,Troon,Ayrshire,KA10 6QR
200,M395,Wishaw,160 Kirk Road,,Wishaw,Strathclyde,ML2 7BJ
201,M395,Alnwick,Fenkle Street,,Alnwick,Northumbria,NE66 1EW
202,M395,Barnard Castle,Calgate Street,,Barnard Castle,Co Durham,DL12 8BH
203,M395,Blyth,Regent Street,,Blyth,Northumbria,NE24 1LQ
206,M395,Cowgate,200 Two Ball Lonnen,Cowgate,Newcastle Upon Tyne,Tyne & Wear,NE4 9SZ
207,M395,Whitley Bay,Hillheads Road,,Whitley Bay,Tyne & Wear,NE25 8HJ
209,M395,Chapel Le Frith,Market Street,Chapel En Le Frith,High Peak,Derbyshire,SK23 0HZ
210,M395,Ellesmere Port,Chester Road,Whitby,Ellesmere Port,Cheshire,CH65 6RX
212,M395,Harwood,Lea Gate,Harwood,Bolton,Lancashire,BL2 3HN
213,M395,Ormskirk,Park Road,,Ormskirk,Lancashire,L39 3RB
215,M395,Bredbury,Stockport Road West,Ashton Road,Stockport,Cheshire,SK6 2BR
216,M395,Reddish,408 Reddish Road,Reddish,Stockport,Cheshire,SK5 7AA
219,M395,Todmorden,Rochdale Road,,Todmorden,Lancashire,OL14 6NU
221,M395,Whitehaven,Flatt Walks,Lowther Street,Whitehaven,Cumbria,CA28 7RW
223,M395,Workington,Derwent Drive,Derwent Howe Ind Est,Workington,Cumbria,CA14 2DS
224,M395,Bridlington,Bessingby Road,,Bridlington,West Yorkshire,YO16 4SJ
226,M395,Malton,Castlegate,,Malton,North Yorkshire,YO17 0DT
227,M395,Meltham,Station Street,,Huddersfield,West Yorkshire,HD9 5QR
228,M395,Selby,Market Cross,,Selby,North Yorkshire,YO8 4JS
230,M395,Acomb,Front Street,Acomb,York,North Yorkshire,YO24 2BZ
232,M395,Corby,Oakley Road,Snatchill,Corby,Northamptonshire,NN18 9NR
233,M395,Hinckley,Hinckley Fields Ind Estate,Northern Perimeter Road,Hinckley,Leicestershire,LE10 1YA
234,M395,Leicester,Cattlemarket,Freemans Park,Leicester,Leicestershire,LE2 7LT
235,M395,Loughborough,Gorsecover Centre,Maxwell Drive,Loughborough,Leicestershire,LE11 4RZ
236,M395,Melton Mowbray,Vale Of Belvoir Shopping Centre,Thorpe End,Melton Mowbray,Leicestershire,LE13 0XY
237,M395,Kettering Road,Kettering Road,,Northampton,Northamptonshire,NN3 6AA
239,M395,Eastwood,Derby Road,,Eastwood,Nottinghamshire,NG16 3NT
241,M395,Aldridge,Anchor Road,Aldridge,Walsall,West Midlands,WS9 8PT
242,M395,Bromsgrove,Buntsford Park Road,,Bromsgrove,Hereford & Worcester,B60 3DX
243,M395,Burntwood,High Street,Chase Town,Burntwood,Staffordshire,WS7 8XP
244,M395,Cannock,Mill Street,,Cannock,Staffordshire,WS11 3DR
245,M395,Castle Bromwich,264 Chester Road,Castle Bromwich,Birmingham,West Midlands,B34 7HR
246,M395,Coventry,Alvis Retail Park,Holyhead Road,Coventry,West Midlands,CV5 8BX
247,M395,Evesham,The Link,Fourpools Estate,Evesham,Hereford & Worcester,WR11 6UT
248,M395,Hereford,Commercial Road,,Hereford,Hereford & Worcester,HR1 1DN
250,M395,Kingswinford,Charterfield Shopping Centre,Stallings Lane,Kingswinford,West Midlands,DY6 7SH
251,M395,Leek,Barnfield Close,(Off Newcastle Road),Leek,Staffordshire,ST13 5SG
252,M395,Leominster,Barons Cross Road,,Leominster,Hereford & Worcester,HR6 8RN
253,M395,Lichfield,Beacon Street,,Lichfield,Staffordshire,WS13 7BG
255,M395,Nantwich,Station Road,,Nantwich,Cheshire,CW5 5YR
256,M395,Goose Street,Goose Street,Off Brook Lane,Newcastle Under Lyme,Staffordshire,ST5 3YH
257,M395,Redditch,Warwick Highway,Winyates West,Redditch,Hereford & Worcester,B98 0SW
260,M395,Rugeley,Market Street,,Rugeley,Staffordshire,WS15 2JJ
261,M395,Solihull,George Road,,Solihull,West Midlands,B91 3BQ
263,M395,Stratford UA,Alcester Road,,Stratford Upon Avon,Warwickshire,CV37 9DA
264,M395,Walsall,Lichfield Street,,Walsall,West Midlands,WS1 1SY
265,M395,Bangor,Holyhead Road,Glanrafen,Bangor,Gwynedd,LL57 1LH
266,M395,Brecon,Free Street,,Brecon,Powys,LD3 7SE
267,M395,Caernarfon,North Road,,Caernarfon,Gwynedd,LL55 1BE
268,M395,Caerphilly,Castle Court,Bedwas Road,Caerphilly,South Wales,CF83 1AY
270,M395,Carmarthen,Parc Pensarn,Llanelli Road,Carmarthen,Carmarthenshire,SA31 2NF
271,M395,Colwyn Bay,Seaview Road,,Colwyn Bay,Clwyd,LL29 8DG
272,M395,Denbigh,Smithfield Road,,Denbigh,Clwyd,LL16 3RQ
273,M395,Haverfordwest,Bridge Meadow Lane,,Haverfordwest,Pembrokeshire,SA61 2EX
274,M395,Neath,Angel Street,,Neath,South Wales,SA11 1RS
275,M395,Beccles,George Westwood Way,,Beccles,Suffolk,NR34 9EJ
276,M395,Canvey Island,Northwick Road,,Canvey Island,Essex,SS8 0PT
277,M395,Little Clacton,Centenary Way,,Little Clacton,Essex,CO16 9SB
278,M395,Waterglade,Waterglade Retail Park,Old Road,Clacton,Essex,CO15 3RJ
279,M395,Cromer,Beech Station Road,,Cromer,Norfolk,NR27 9SW
281,M395,Southend On Sea,Western Approaches,Eastwood,Southend On Sea,Essex,SS2 6SH
282,M395,Fakenham,Clipbush Lane,,Fakenham,Norfolk,NR21 8SW
283,M395,Felixstowe,Grange Farm Avenue,Cavendish Park Estate,Felixstowe,Suffolk,IP11 8XD
285,M395,Harwich,Iconfield Park,Garland Road,Harwich,Essex,CO12 4PB
288,M395,Peterborough,Lincoln Road,,Peterborough,Cambridgeshire,PE4 6WS
289,M395,Skegness,Wainfleet Road,,Skegness,Lincolnshire,PE25 3QT
290,M395,Witham,Braintree Road,,Witham,Essex,CM8 1AA
291,M395,Aylesbury,Station Way,,Aylesbury,Buckinghamshire,HP20 2HX
293,M395,Canterbury,Ten Perch Road,Wincheap,Canterbury,Kent,CT1 3TQ
294,M395,Caterham,Church Walk,,Caterham,Surrey,CR3 6RT
295,M395,Walderslade,Princes Avenue,Walderslade,Chatham,Kent,ME5 8BA
296,M395,Becontree Heath,Wood Lane,Becontree Heath,Dagenham,Essex,RM10 7RA
297,M395,Folkestone,148 Cheriton Road,,Folkestone,Kent,CT19 5JU
299,M395,Hatch End,299 Uxbridge Road,,Hatch End,Middlesex,HA5 4QT
300,M395,High Wycombe,Temple End,,High Wycombe,Buckinghamshire,HP13 5XX
301,M395,Leighton Buzzard,Lake Street,,Leighton Buzzard,Bedfordshire,LU7 8WS
302,M395,Acton,King Street,,Acton,London,W3 9LA
304,M395,Holloway,10 Hertslet Road,,Holloway,London,N7 6PL
305,M395,Palmers Green,19 Aldermans Hill,,Palmers Green,London,N13 4YD
306,M395,Peckham,Aylesham Centre,Rye Lane,Peckham,London,SE15 5EW
307,M395,Queensbury,Honeypot Lane,Queensbury,Brent,London,NW9 6RN
308,M395,Shepherd's Bush,114/116 West 12 Shopping Centre,,Shepherds Bush,London,W12 8PH
309,M395,Stratford,The Grove,,Stratford,London,E15 1EN
310,M395,Streatham,High Street,,Streatham,London,SW16 6HP
311,M395,Thamesmead,2 Twin Tumps Way,Off Central Way,Thamesmead,London,SE28 8RD
313,M395,Wood Green,High Road,,Wood Green,London,N22 6BH
314,M395,Loughton,246/250 High Road,,Loughton,Essex,IG10 1RB
315,M395,Maidstone,Sutton Road,Parkwood,Maidstone,Kent,ME15 9NN
316,M395,Sidcup,1 Jenner Close,,Sidcup,Kent,DA14 6EF
322,M395,Bodmin,Priory Road,,Bodmin,Cornwall,PL31 2ST
323,M395,Bridgwater,The Broadway,,Bridgwater,Somerset,TA6 3LN
324,M395,Fishponds,668-718 Fishponds Road,Fishponds,Bristol,Avon,BS16 3US
325,M395,Bude,Stucley Road,,Bude,Cornwall,EX23 8UA
326,M395,Up Hatherley,Caernarvon Road,,Cheltenham,Gloucestershire,GL51 3BW
327,M395,Glastonbury,Street Road,,Glastonbury,Somerset,BA6 9ED
328,M395,Liskeard,Maudlin Farm,Plymouth Road,Liskeard,Cornwall,PL14 3PR
330,M395,Paignton,275 Bradford Road,Idle,Bradford,West Yorkshire,BD10 8EG
331,M395,Penzance,Eastern Way,Longrock,Penzance,Cornwall,TR18 3RF
332,M395,Plymouth,Outland Road,,Plymouth,Devon,PL3 5UQ
334,M395,Redruth,Agar Road,Illogan Highway,Redruth,Cornwall,TR15 3NH
335,M395,Taunton,Priory Bridge Road,,Taunton,Somerset,TA1 1DX
336,M395,Tavistock,Plymouth Road,,Tavistock,Devon,PL19 9DS
337,M395,Tewkesbury,Ashchurch Road,,Tewkesbury,Gloucestershire,GL20 8BN
338,M395,Tiverton,Kennedy Way,,Tiverton,Devon,EX16 6RZ
339,M395,Totnes,Coronation Road,,Totnes,Devon,TQ9 5DF
340,M395,Warminster,Weymouth Street,,Warminster,Wiltshire,BA12 9NT
341,M395,W Super Mare,Summer Lane,Locking Castle,Weston-Super-Mare,Somerset,BS24 7AY
343,M395,Yate,Station Road,,Yate,South Gloucestershire,BS37 5PW
344,M395,Yeovil,Lysander Road,,Yeovil,Somerset,BA20 2AU
346,M395,Bracknell,The Peel Centre,Skimped Hill Lane Retail Park,Bracknell,Berkshire,RG12 1EN
347,M395,Bridport,West Bay Road,,Bridport,Dorset,DT6 4SB
349,M395,Devizes,Estcourt Street,,Devizes,Wiltshire,SN10 1LA
350,M395,Goole,145 Boothferry Road,,Goole,East Yorkshire,DN14 6AX
351,M395,Farnborough,Summit Avenue,Southwood,Farnborough,Hampshire,GU14 0NA
353,M395,Hastings,Queens Road,,Hastings,East Sussex,TN34 1RN
355,M395,Newport (IoW),South Street,,Newport,Isle Of Wight,PO30 1JQ
356,M395,Oxted,43 East Hill,,Oxted,Surrey,RH8 9AE
358,M395,Portsmouth,Commercial Centre,Anchorage Park,Portsmouth,Hampshire,PO3 5UH
361,M395,Lake (IoW),Newport Road,Lake,Sandown,Isle Of Wight,PO36 9PA
362,M395,Seaford,Dane Road,,Seaford,East Sussex,BN25 1DL
363,M395,Swindon,Thames Avenue,Haydon Wick,Swindon,Wiltshire,SN25 1QQ
366,M395,Weymouth,Manor Roundabout,Dorchester Road,Weymouth,Dorset,DT3 5AX
368,M395,Coventry Holbrook,Park Gate Road,Holbrook,Coventry,West Midlands,CV6 4GB
372,M395,Minehead,Vulcan Road,,Minehead,Somerset,TA24 6DG
374,M395,Crossmyloof,Titwood Road,Crossmyloof,Glasgow,Strathclyde,G41 4DA
375,M395,Partick,1 Merkland Court,Partick,Glasgow,Strathclyde,G11 6BZ
379,M395,Carmondean,Carmondean Centre,,Livingston,Lothian,EH54 8BT
381,M395,Morpeth,Stanley Terrace,,Morpeth,Northumbria,NE61 1PA
383,M395,Chorlton Cum Hardy,418B Wilbraham Rd,Chorlton Cum Hardy,Manchester,Greater Manchester,M21 0SD
384,M395,Kirkham,Off Poulton Street,,Kirkham,Lancashire,PR4 2AN
385,M395,Catton,100 The Paddocks,Old Catton,Norwich,Norfolk,NR6 7HS
388,M395,Borehamwood,Stirling Retail Park,Stirling Corner,Borehamwood,Hertfordshire,WD6 2BT
389,M395,South Sheilds,25 Ocean Road,,South Shields,South Tyneside,NE33 2HT
391,M395,Openshaw,1221 Ashton Old Road,Lime Square,Manchester,Lancashire,M11 1DA
392,M395,Congleton,Bridestone Shopping Centre,Market Street,Congleton,Cheshire,CW12 1JY
393,M395,Driotwich,Cover Croft Road,St Andrews Centre,Droitwich,Hereford & Worcester,WR9 8HE
394,M395,Bamber Bridge,Station Road,Bamber Bridge,Preston,Lancashire,PR5 6LA
395,M395,Market Drayton,Maer Road,,Market Drayton,Shropshire,TF9 3AL
397,M395,Newtown,Pool Road,,Newtown,Powys,SY16 3AH
398,M395,Great Harwood,Queen Street,Great Harwood,Blackburn,Lancashire,BB6 7AL
399,M395,Shirley,Stratford Road,Shirley,Solihull,West Midlands,B90 3AR
401,M395,Pendeford,Pendeford Park Shopping Centre,Blaydon Road,Wolverhampton,West Midlands,WV9 5PG
402,M395,Herne Bay,Beach Street,,Herne Bay,Kent,CT6 5PU
409,M395,Bathgate,2 Linkston Way,,Bathgate,West Lothian,EH48 7XN
410,M395,Stamford Hill,47/49 Stamford Hill,,Stoke Newington,London,N16 5SR
413,M395,Petts Wood,70 Queensway,,Petts Wood,Kent,BR5 1DH
414,M395,Stanground,Bellona Drive,Stanground,Peterborough,Peterborough,PE2 8GP
415,M395,Salford,11 Trafford Road,,Salford,Lancashire,M5 3PJ
418,M395,Clevedon,The Triangle Centre,Kenn Road,Clevedon,Somerset,BS21 6HX
419,M395,Rothwell,1 Jail Yard Parade,Rothwell,Leeds,Leeds,LS26 0AF
420,M395,Newton Le Willows,Haydock Street,,Newton Le Willows,Cheshire,WA12 9SE
423,M395,Blandford,West Street,,Blandford,Dorset,DT11 7AW
424,M395,Bognor Regis,Bedford Street,,Bognor Regis,West Sussex,PO21 1RP
425,M395,Holyhead,Penrhos Industrial Estate,Penrhos,Holyhead,Anglesey,LL65 2UQ
428,M395,Telford,Tureff Avenue,Donnington,Telford,Shropshire,TF2 8EA
429,M395,Fleet,Elvetham Heath Way,,Fleet,Hampshire,GU51 1HA
430,M395,Armthorpe,Church Street,Armthorpe,Doncaster,South Yorkshire,DN3 3AG
435,M395,Verwood,District Shopping Centre,Chiltern Drive,Verwood,Dorset,BH31 6UQ
436,M395,Woosehill,Woosehill Shopping Cnt,Woosehill,Wokingham,Berkshire,RG41 3SW
437,M395,Castleford,Albion Street,,Castleford,West Yorkshire,WF10 1QX
438,M395,Erskine,Bridgwater Shopping Centre,,Erskine,Strathclyde,PA8 7AA
439,M395,Gorleston,Blackwall Reach,,Gorleston,Norfolk,NR31 6SA
440,M395,Connahs Quay,Fforth Llanarth Local Centre,Connah's Quay,Flintshire,North Wales,CH5 4UP
441,M395,Dover,Bridge Street,,Dover,Kent,CT16 2LB
442,M395,Willenhall,Middle Piece Way,,Willenhall,West Midlands,WV13 1QG
447,M395,Welling,71-79 Welling High Street,,Welling,LONDON,DA16 1TZ
448,M395,Clifton,Green Lane,Clifton,Nottingham,Nottinghamshire,NG11 9LQ
449,M395,Yiewsley,67 High Street,,West Drayton,Middlesex,UB7 7QQ
450,M395,Bedlington,Choppington Road,Bedlington,Newcastle Upon Tyne,Northumbria,NE22 6LA
451,M395,Ravensthorpe,Huddersfield Road,,Dewsbury,West Yorkshire,WF13 3JR
466,M395,Shildon,Unit 2 Church Street,,Shildon,County Durham,DL4 1DS
467,M395,Castletown,Castle View,,Castletown,Sunderland,SR5 3BQ
469,M395,Cardiff,International Sports Village,Cardiff Bay,Cardiff Bay,South Wales,CF11 0JP
470,M395,Handsworth,Holyhead Road,,Handsworth,Birmingham,B21 0AP
472,M395,Mansfield Woodhouse,High Street,Mansfield Woodhouse,Mansfield,Nottinghamshire,NG19 8AN
474,M395,Chester Le Street,154 & 156 Front Street,,Chester Le Street,County Durham,DH3 3AY
475,M395,Halifax,Keighley Road,,Halifax,West Yorkshire,HX2 8HY
479,M395,Brentford,228-246 High Street,,Brentford,Brentford,TW8 0JG
480,M395,Brighton,St James Street,,Brighton,East Sussex,BN2 1RE
481,M395,Burnham,Pier Street,,Burnham On Sea,Somerset,TA8 1BT
483,M395,Camberwell,Butterfly Walk,,Camberwell Green,LONDON,SE5 8RW
484,M395,Cheadle,Well Street,,Cheadle,Staffordshire,ST10 1YP
485,M395,Chelmsford,Copperfield Street,,Chelmsford,Essex,CM1 4UX
486,M395,Corringham,St Johns Way,,Corringham,Essex,SS17 7NA
487,M395,Cowdenbeath,Main Street,,Cowdenbeath,Scotland,KY4 9QW
488,M395,Crawley,3 Broadfield Barton,,Crawley,West Sussex,RH11 9BA
490,M395,Crediton,Mill Street,,Crediton ,Devon,EX17 1EY
491,M395,Downham Market,Bridge Street,,Downham Market,Norfolk,PE38 9DH
493,M395,Bolton Brightmet,Bury Road,Breightmet,Bolton,Lancashire,BL2 6QT
494,M395,Boston,Unit 4 Horncastle Road,,Boston,Lincolnshire,PE21 9BD
495,M395,Rugby,1 Westway,,Rugby,Warwickshire,CV21 2DQ
496,M395,Exeter,Prince Charles Street,,Exeter,Devon,EX4 7BY
497,M395,Frodsham,High Street,,Frodsham,Cheshire,WA6 7EZ
498,M395,Hounslow,Cavendish Parade,Bath Road,Hounslow West,Surrey,TW4 7DJ
499,M395,Kingsbridge,Redford Meadow,Cookworthy Road,Kingsbridge,Devon,TQ7 1TP
500,M395,Lanark,St Vincents Place,,Lanark,Lanarkshire,ML11 7LA
502,M395,Oldbury,134 Pottery Road,Oldbury,Warley,West Midlands,B68 9HB
503,M395,West Bromwich,The Farley Centre,The Ringway,West Bromwich,West Midlands,B70 7QU
504,M395,Tamworth (Gungate),Upper Gungate,,Tamworth,West Midlands,B79 7NU
505,M395,Bransholme,North Point Shopping Centre,5 Goodheart Road,Hull,Kingston Upon Hull,HU7 4EE
507,M395,Accrington,Eastgate Retail Park,Eastgate,Accrington,Lancashire,BB5 6RQ
508,M395,Leigh,Leigh Sports Village,Sale Way,Leigh,Greater Manchester,WN7 4JY
509,M395,New Brighton,Marine Point,Kings Parade,New Brighton,Merseyside,CH45 2PB
511,M395,Wisbech,Elm High Road,,Wisbech,Cambridgeshire,PE14 0DG
514,M395,Stowmarket,Milton Road South,,Stowmarket,Suffolk,IP14 1EJ
517,M395,Little Hulton,Armitage Avenue,,Worsley,Greater Manchester,M38 0EH
520,M395,Faversham,North Lane,,Faversham,Kent,ME13 7DY
523,M395,Cramlington,Northumberland Road,Brockwell Centre,Cramlington,Northumbria,NE23 1XZ
525,M395,Braintree,George Yard,Rayne Road,Braintree,Essex,CM7 1QP
527,M395,Mitcham,St Marks Road,,Mitcham,London,CR4 2LF
533,M395,Elland,4 Jubilee Way,Elland,Halifax,West Yorkshire,HX5 9DY
538,M395,Nailsworth,George Street,,Nailsworth,Gloucestershire,GL6 0AG
539,M395,New Milton,1 Mallard Buildings,Station Road,New Milton,Hampshire,BH25 6HY
540,M395,Oswestry,Station Road,,Oswestry,Shropshire,SY11 1RA
541,M395,Wallasey,18 Church Road,Seacomb,Wallasey,Cheshire,CH44 6JF
547,M395,Leamington Spa,Old Warwick Road,,Leamington Spa,Warwickshire,CV31 3NT
549,M395,Harrow,Trident Point,19 Pinner Road,Harrow,London,HA1 4HX
554,M395,Sheldon,2259-2297 Coventry Rd ,Sheldon,Birmingham,West Midlands,B26 3PU
555,M395,Bacup,Lee Street,,,Lancashire,OL13 0AR
560,M395,Teigmouth,Newfoundland rd ,Teigmouth,,Devon,TQ14 9WP
568,M395,Northallerton,208 High Street,,Northallerton,Derbyshire,DL7 8LW
572,M395,Sheppey,Neats Court ,,Ilse of Sheppy ,Kent,ME11 5JS
573,M395,Bargoed,Bargoed Gateway,,,South Wales,CF81 8QT
575,M395,Gloucester,Metz Way,Triangle Way,Gloucester,Gloucestershire,GL1 1DS
576,M395,Croydon,"Unit 1, 500 Fiveways",,Croydon,London,CR0 4NZ
582,M395,Kirkcaldy,The Esplanade,Kirkcaldy,Fife,Fife,KY1 1SL
583,M395,Brough,Welton Road,,Brough,East Yorkshire,HU15 1AF
586,M395,Watford (Temp),Ascot rd ,,Watford ,Slough,WD18 8AA
598,M395,Welshpool,Berriew Street,,Welshpool,Powys,SY21 7SQ
605,M395,Ramsbottom,King Street,Ramsbottom,Bury,Bury,BL0 9AS
607,M395,Royston,Baldock Street,,Royston,Hertfordshire,SG8 5BA
608,M395,Shefford,High Street,,Shefford,Bedfordshire,SG17 5DD
628,M395,Bedford,Unit C,Riverway,Harlow,Essex,CM20 2DP
630,M395,Littlehampton,,,Littlehampton,West Sussex,BN17 7LR
633,M395,Southwark,264 Walworth Road,,Southwark,LONDON,SE17 1JE
635,M395,Guisborough,71-81 Westgate,,Guisborough,Cleveland,TS14 6AF
638,M395,Tyldseley,5 Shuttle Street,,Tyldesley,Greater Manchester,M29 8AW
642,M395,Larkfield,New Hythe Lane,Larkfield,Maidstone,Kent,ME20 6PW
643,M395,Margate,College Walk,Hawley Street,Margate,Thanet,CT9 1PR
647,M395,Banchory,North Deeside Road,,Banchory,Kincardineshire,AB31 5YR
650,M395,Louth,150 East Gate,,Louth,Lincolnshire,LN11 9AB
651,M395,Maghull,Stafford Moreton Way,,Maghull,Liverpool,L31 2PH
652,M395,Porth,Pontypridd Road,,Porth,Wales,CF39 9BA
672,M395,Carterton,Black burton rd,,,Oxfordshire,OX18 3HA
677,M395,Saltney,High Street,,Saltney,Flintshire,CH4 8RU
678,M395,Westbury,42 Edward Street,,Westbury,Somerset,BA13 3BG
691,M395,Kidderminster,Green Street,,Kidderminster,Hereford & Worcester,DY10 1AZ
692,M395,Llanelli,Pemberton Retail Park,Trostre Roundabout,Llanelli,South Wales,SA14 9DR
693,M395,Giffnock,38 Fenwick Road,Giffnock,Glasgow,Lanarkshire,G46 6AA
694,M395,Harehills,Harehills Lane,,Leeds,Leeds,LS8 3RG
